HST
1 20580U 90037B   05282.31552890  .00000621  00000-0  35882-4 0  4448
2 20580 028.4688 245.0778 0003595 047.0653 313.0243 14.99859323647391
ISS
1 25544U 98067A   05283.46728568  .00018244  00000-0  12992-3 0  5210
2 25544 051.6448 030.3850 0001616 086.3165 005.0228 15.73911691393827
INTELSAT 701
1 22871U 93066A   05282.46199466  .00000057  00000-0  10000-3 0  7057
2 22871 000.0200 245.1142 0002671 307.3691 172.0456 01.00273614 43712
SOLAR A
1 21694U 91062A   05255.24413238  .18941249 -36310-5  95022-3 0  2973
2 21694 031.2902 084.0170 0000589 238.3376 121.9663 16.42598748769267
UARS
1 21701U 91063B   05282.55545648  .00000818  00000-0  54763-4 0  5698
2 21701 056.9826 086.0387 0060341 092.6832 268.1120 15.16917949770708
